UNISAT-7
1 47945U 21022P   25101.72443544  .00018006  00000-0  66327-3 0  9990
2 47945  97.4284   0.5263 0012241 163.7087 196.4548 15.27817294223722
CUBESX-SIRIUS-HSE
1 47951U 21022V   25102.17435510  .00228906  00000-0  19576-2 0  9996
2 47951  97.4238  11.9983 0010608 128.0370 232.1850 15.68696221224610
CUBESX-HSE (RS13S)
1 47952U 21022W   25102.19801939  .00228169  00000-0  19064-2 0  9994
2 47952  97.4242  12.2541 0010635 124.5312 235.6955 15.69267502224630
CHALLENGEONE
1 47956U 21022AA  25101.27407001  .00576479  12555-3  22305-2 0  9991
2 47956  97.4181  13.3037 0010905 134.1263 226.0907 15.87120950224401
GRBALPHA
1 47959U 21022AD  25102.16930447  .00221643  00000-0  18902-2 0  9995
2 47959  97.4230  12.3510 0010427 127.3693 232.8520 15.68788469223458
ORBICRAFT-ZORKIY (RS15S)
1 47960U 21022AE  25101.88366129  .06332454  25469-5  13141-2 0  9995
2 47960  97.4031  16.8953 0007444 187.8603 172.2576 16.31049017224387
CSS (TIANHE-1)
1 48274U 21035A   25101.96317154  .00022086  00000-0  25539-3 0  9996
2 48274  41.4646  63.6440 0002391 136.5229 223.5799 15.61337528225803
FENGYUN-4B
1 48808U 21047A   25101.58239025 -.00000333  00000-0  00000-0 0  9995
2 48808   0.1798 276.5220 0001339  53.3913 184.5521  1.00279324 14255
TUBIN
1 48900U 21059X   25102.20574251  .00064615  00000-0  97486-3 0  9993
2 48900  97.6716 266.9526 0003371 110.0326 250.1290 15.54545380210958
LEDSAT
1 49069U 21073D   25102.19968291  .00082463  00000-0  13330-2 0  9991
2 49069  97.3937 181.6407 0010763 282.2866  77.7182 15.52504149202356
CUTE-LASP
1 49263U 21088D   25101.90328637  .00023883  00000-0  51720-3 0  9992
2 49263  97.4546 176.5530 0010050  99.2652 260.9733 15.44394429195366
HEAD-2F
1 49322U 21091H   25102.21284130  .00323638  00000-0  11729-2 0  9991
2 49322  97.4012 315.6070 0002605  80.3263 279.8303 15.87768422195278
JILIN-01 GAOFEN 2F
1 49338U 21097A   25102.11143216  .00011357  24078-7  66366-3 0  9990
2 49338  97.6310 227.1253 0030748 256.4305 103.3500 15.11537349188844
TEIKYOSAT-4 (OORURI)
1 49396U 21102B   25101.67470444  .00003935  00000-0  26425-3 0  9994
2 49396  97.4165 142.2190 0011917 342.7142  17.3679 15.07303652187670
Z-SAT
1 49399U 21102E   25102.19805337  .00009021  00000-0  50187-3 0  9992
2 49399  97.3869 145.4707 0016800 309.3426  50.6316 15.13762760188149
KOSEN-1
1 49402U 21102H   25101.87680361  .00012833  00000-0  60987-3 0  9993
2 49402  97.3776 148.1459 0014464 284.7378  75.2253 15.19250815188378
CAMSAT XW-3 (CAS-9)
1 50466U 21131B   25102.21679487  .00001379  00000-0  44535-3 0  9997
2 50466  98.5083 191.8662 0003171 322.8367  37.2602 14.40714923173042
SICH-2-1 (SICH-2-30)
1 51030U 22002AY  25102.16138741  .00079910  00000-0  10969-2 0  9999
2 51030  97.3396 176.8386 0003093  56.2382 303.9168 15.57061651180419
IRIS-A
1 51044U 22002BN  25101.93914654  .00205133  00000-0  14073-2 0  9991
2 51044  97.3301 179.2181 0000686 250.8323 109.2867 15.74107917180599
VZLUSAT-2
1 51085U 22002DF  25102.14647700  .00061195  00000-0  10439-2 0  9995
2 51085  97.3387 173.6133 0006140  68.1444 292.0461 15.51123138180205
INSPIRESAT-1
1 51657U 22013B   25101.65065165  .00033993  00000-0  80292-3 0  9996
2 51657  97.4990 129.4474 0007448 167.6481 192.4949 15.41753138175291
GOES-18
1 51850U 22021A   25102.20174468  .00000098  00000-0  00000+0 0  9994
2 51850   0.0193  37.0794 0000347  52.8465  46.3526  1.00273368 11488
MERIDIAN-10
1 52145U 22030A   25100.28421319  .00000201  00000-0  00000-0 0  9995
2 52145  62.6539 186.3554 6752020 273.4958  17.6819  2.00601543 22346
BRO-7
1 52174U 22033T   25102.24412364  .00212576  00000-0  17737-2 0  9995
2 52174  97.2985 197.6672 0005655 246.9715 113.0951 15.69395771169788
BRO-6
1 52422U 22047AE  25102.20025644  .00017699  00000-0  53431-3 0  9994
2 52422  97.3659 185.5341 0006330 172.1318 188.0025 15.34306781164786
CONNECTA-T1
1 52739U 22057H   25102.10712444  .00059081  00000-0  11205-2 0  9999
2 52739  97.6042 238.5021 0006009 188.4304 171.6846 15.48109686160064
PLATFORM-1
1 52770U 22057AQ  25101.81720654  .00111907  00000-0  17504-2 0  9997
2 52770  97.6008 241.9176 0005979 187.2683 172.8484 15.53353270160306
STEP CUBELAB-II
1 52897U 22065D   25102.19046774  .00002539  00000-0  51341-3 0  9990
2 52897  98.1608 244.3474 0007552 298.1889  61.8549 14.62184731148493
RANDEV
1 52898U 22065E   25102.15714928  .00002741  00000-0  54988-3 0  9995
2 52898  98.1598 244.4940 0006854 299.9622  60.0899 14.62495127148223
SNUGLITE-II
1 52899U 22065F   25102.15561354  .00002978  00000-0  58985-3 0  9992
2 52899  98.1587 244.7339 0006416 299.7257  60.3306 14.63004854147941
MIMAN
1 52900U 22065G   25102.12726375  .00001743  00000-0  36442-3 0  9991
2 52900  98.1632 243.6280 0006489 297.4139  62.6402 14.61036708147473
GREENCUBE (IO-117)
1 53106U 22080B   25051.21822557 -.00000003  00000-0  00000 0 0  9995
2 53106  70.1434 106.3440 0008542  48.0089 312.1297  6.42557744 61200
ROBUSTA 1F (MTCUBE-2)
1 53109U 22080E   25101.29340563 -.00000003  00000-0  00000-0 0  9995
2 53109  70.1222  88.4402 0008553  20.2908 339.8091  6.42584411 64314
BLUEWALKER-3
1 53807U 22111AL  25101.70759137  .00012344  00000-0  40437-3 0  9993
2 53807  53.2321 250.3824 0005862 287.3140  72.7221 15.32050775143926
ELEKTRO-L4
1 55506U 23016A   25100.98529006 -.00000062  00000-0  00000-0 0  9999
2 55506   0.0783  63.6718 0000185  39.6453 256.6767  1.00270189  7998
SHARJAHSAT-1
1 55104U 23001CZ  25102.15577913  .00019946  00000-0  62627-3 0  9994
2 55104  97.3771 163.8361 0007976 206.9668 153.1161 15.33020152126149
METEOR M2-3
1 57166U 23091A   25102.17229598  .00000076  00000-0  52159-4 0  9992
2 57166  98.6672 159.4995 0003695   0.2610 359.8570 14.23991508 93178
STRATOSAT-TK1 (RS52S)
1 57167U 23091B   25102.21562523  .00057791  00000-0  16845-2 0  9992
2 57167  97.5597 163.9981 0011300 156.7212 203.4545 15.35109705 99047
RESHUCUBE-2 (RS37S)
1 57168U 23091C   25102.16340659  .00015970  00000-0  79821-3 0  9998
2 57168  97.5627 158.8549 0014652 167.5942 192.5655 15.17443893 98709
RASSVET 1-1
1 57169U 23091D   25102.21215288  .00013402  00000-0  69745-3 0  9996
2 57169  97.5688 158.8910 0013358 157.0343 203.1489 15.16079922 98699
RASSVET 1-2
1 57170U 23091E   25102.21230346  .00013578  00000-0  70680-3 0  9994
2 57170  97.5693 158.9380 0012271 148.9443 211.2517 15.16079880 98697
RASSVET 1-3
1 57171U 23091F   25102.21192512  .00013547  00000-0  70483-3 0  9994
2 57171  97.5690 158.9096 0013965 167.0241 193.1353 15.16078658 98696
UMKA-1 (RS40S)
1 57172U 23091G   25102.21915722  .00011455  00000-0  62416-3 0  9994
2 57172  97.5647 157.9194 0015322 170.4115 189.7412 15.14465584 98642
SATURN (RS43S)
1 57174U 23091J   25102.21366018  .00006314  00000-0  39217-3 0  9995
2 57174  97.5659 156.0027 0014481 184.9368 175.1721 15.09944837 98512
CUBEBEL-2 (EU11S)
1 57175U 23091K   25102.19326096  .00016372  00000-0  80922-3 0  9999
2 57175  97.5644 158.7096 0013191 178.7315 181.3955 15.17846584 98698
SITRO-AIS-5 (ANOKHIN)
1 57176U 23091L   25102.19651449  .00017282  00000-0  84086-3 0  9999
2 57176  97.5646 159.0887 0015426 167.8179 192.3430 15.18355594 98713
ZORKIY-2M
1 57177U 23091M   25102.20949372  .00010966  00000-0  60224-3 0  9997
2 57177  97.5682 158.1008 0016220 167.3730 192.7911 15.14185559 98648
CUBESX-HSE-3 (RS42S)
1 57178U 23091N   25102.19961847  .00017761  00000-0  84190-3 0  9995
2 57178  97.5674 159.7784 0015092 161.2280 198.9514 15.19260135 98744
PHI-DEMO
1 57181U 23091R   25102.18422872  .00006945  00000-0  42212-3 0  9999
2 57181  97.5656 156.3348 0016932 177.2038 182.9290 15.10663317 98530
MONITOR-3 (RS58S)
1 57180U 23091Q   25102.16612624  .00017235  00000-0  85246-3 0  9990
2 57180  97.5670 159.1563 0015540 163.3764 196.7982 15.17781314 98706
NORBY-2
1 57179U 23091P   25102.17027576  .00009520  00000-0  55753-3 0  9993
2 57179  97.5689 157.1371 0017015 169.2235 190.9363 15.11905994 98565
MONITOR-4 (RS57S)
1 57182U 23091S   25102.16428083  .00017556  00000-0  86717-3 0  9996
2 57182  97.5665 159.1127 0015571 163.8612 196.3121 15.17823382 98702
MONITOR-2 (RS39S)
1 57184U 23091U   25102.18486350  .00009696  00000-0  54197-3 0  9994
2 57184  97.5671 158.2194 0013392 160.5156 199.6590 15.13625053 98641
SVYATOBOR-1 (RS60S)
1 57187U 23091X   25102.19694435  .00014293  00000-0  70885-3 0  9994
2 57187  97.5673 159.8987 0012578 153.7900 206.3972 15.17767464 98758
VIZARD-METEO (RS38S)
1 57189U 23091Z   25102.18005846  .00021831  00000-0  96040-3 0  9994
2 57189  97.5660 161.3858 0011307 148.6039 211.5874 15.21829652 98859
NANOZOND-1 (RS49S)
1 57190U 23091AA  25102.20547110  .00044141  00000-0  14225-2 0  9997
2 57190  97.5615 164.3379 0008919 147.5021 212.6771 15.32010774 99067
SITRO-AIS-6 (CHIRKIN)
1 57192U 23091AC  25102.18061705  .00018054  00000-0  88015-3 0  9990
2 57192  97.5644 159.0922 0015317 167.8753 192.2852 15.18279013 98714
SITRO-AIS-8 (SHCHUKIN)
1 57193U 23091AD  25102.20535256  .00019616  00000-0  92234-3 0  9994
2 57193  97.5644 159.5041 0014891 167.3150 192.8462 15.19522380 98749
SITRO-AIS-7 (SHEFFER)
1 57194U 23091AE  25102.19873744  .00015941  00000-0  77967-3 0  9993
2 57194  97.5645 159.0577 0015181 168.0766 192.0830 15.18195039 98718
AVION KALUGA 650
1 57195U 23091AF  25102.21489213  .00010574  00000-0  57790-3 0  9990
2 57195  97.5688 158.7443 0012709 159.6809 200.4931 15.14412309 98670
YARILO 3
1 57198U 23091AJ  25102.20899738  .00567495  00000-0  30184-2 0  9995
2 57198  97.5530 171.8496 0006361 218.6592 141.4219 15.78938147 99526
SITRO-AIS-10 (KATYS)
1 57199U 23091AK  25102.17861391  .00024138  00000-0  10378-2 0  9991
2 57199  97.5653 161.5014 0011006 152.5221 207.6599 15.22594381 98861
SITRO-AIS-9 (BURDAEV)
1 57201U 23091AM  25102.18976170  .00022889  00000-0  98882-3 0  9996
2 57201  97.5648 161.4452 0010948 152.5851 207.5965 15.22442741 98865
